STARLINK-2753           
1 48696U 21044BL  26068.52463454  .00059459  00000+0  20258-2 0  9999
2 48696  53.1589  89.2579 0001391 119.4639 240.6500 15.29842639264157
TEVEL2-3                
1 63218U 25052J   26068.64540225  .00020365  00000+0  69446-3 0  9991
2 63218  97.3994 324.7775 0004761 105.7353 254.4413 15.30377031 54855
